NORAD_CAT_ID,OBJECT_NAME,OBJECT_TYPE,EPOCH,MEAN_MOTION,ECCENTRICITY,INCLINATION,RA_OF_ASC_NODE,ARG_OF_PERICENTER,MEAN_ANOMALY,BSTAR,MEAN_MOTION_DOT,MEAN_MOTION_DDOT,TLE_LINE0,TLE_LINE1,TLE_LINE2,SEMIMAJOR_AXIS,PERIOD,APOGEE,PERIGEE,DECAYED
49460.0,STARLINK-3140,PAYLOAD,2023-12-13 02:46:04,15.0884654,0.0002196,53.2184,289.3602,74.2149,285.9085,8.9137e-05,1.131e-05,0.0,0 STARLINK-3140,1 49460U 21104BE  23347.11532549  .00001131  00000-0  89137-4 0  9998,2 49460  53.2184 289.3602 0002196  74.2149 285.9085 15.08846540115345,6917.86,95.437,541.245,538.206,0.0
49460.0,STARLINK-3140,PAYLOAD,2023-12-14 02:36:51,15.088442,0.0001994,53.218,284.9011,87.6704,272.4516,2.2543e-05,7.1e-07,0.0,0 STARLINK-3140,1 49460U 21104BE  23348.10892592  .00000071  00000-0  22543-4 0  9995,2 49460  53.2180 284.9011 0001994  87.6704 272.4516 15.08844200116584,6917.868,95.437,541.112,538.353,0.0
49460.0,STARLINK-3140,PAYLOAD,2023-12-14 18:30:42,15.08846785,0.0001921,53.2176,281.9239,96.5699,263.5512,1.7477e-05,-1e-07,0.0,0 STARLINK-3140,1 49460U 21104BE  23348.77132291 -.00000010  00000-0  17477-4 0  9995,2 49460  53.2176 281.9239 0001921  96.5699 263.5512 15.08846785115597,6917.86,95.437,541.054,538.396,0.0
49460.0,STARLINK-3140,PAYLOAD,2023-12-15 02:27:37,15.08850451,0.0001979,53.2181,280.4377,98.1703,261.9513,6.2148e-05,7.01e-06,0.0,0 STARLINK-3140,1 49460U 21104BE  23349.10251763  .00000701  00000-0  62148-4 0  9990,2 49460  53.2181 280.4377 0001979  98.1703 261.9513 15.08850451115641,6917.848,95.437,541.082,538.344,0.0
49460.0,STARLINK-3140,PAYLOAD,2023-12-16 02:18:26,15.08830425,0.0001806,53.2179,275.9776,104.8576,255.2616,-2.0264e-05,-6.11e-06,0.0,0 STARLINK-3140,1 49460U 21104BE  23350.09613624 -.00000611  00000-0 -20264-4 0  9993,2 49460  53.2179 275.9776 0001806 104.8576 255.2616 15.08830425116888,6917.91,95.438,541.024,538.525,0.0
49460.0,STARLINK-3140,PAYLOAD,2023-12-16 22:58:26,15.08842752,0.0001639,53.2175,272.1118,94.0099,266.1081,5.9642e-05,6.61e-06,0.0,0 STARLINK-3140,1 49460U 21104BE  23350.95724910  .00000661  00000-0  59642-4 0  9994,2 49460  53.2175 272.1118 0001639  94.0099 266.1081 15.08842752117016,6917.872,95.437,540.871,538.603,0.0
49460.0,STARLINK-3140,PAYLOAD,2023-12-18 01:59:59,15.08853583,0.0001472,53.2159,267.0538,83.7291,276.3869,0.00030449,4.563e-05,0.0,0 STARLINK-3140,1 49460U 21104BE  23352.08332365  .00004563  00000-0  30449-3 0  9997,2 49460  53.2159 267.0538 0001472  83.7291 276.3869 15.08853583117180,6917.839,95.437,540.722,538.686,0.0
49460.0,STARLINK-3140,PAYLOAD,2023-12-18 22:40:00,15.08832407,0.0001565,53.2161,263.1879,113.8378,246.2778,-6.1749e-05,-1.27e-05,0.0,0 STARLINK-3140,1 49460U 21104BE  23352.94445531 -.00001270  00000-0 -61749-4 0  9994,2 49460  53.2161 263.1879 0001565 113.8378 246.2778 15.08832407116223,6917.904,95.438,540.851,538.686,0.0
49460.0,STARLINK-3140,PAYLOAD,2023-12-19 01:50:47,15.08831727,0.0001368,53.2157,262.5946,79.537,280.5776,-5.231e-05,-1.12e-05,0.0,0 STARLINK-3140,1 49460U 21104BE  23353.07693676 -.00001120  00000-0 -52310-4 0  9992,2 49460  53.2157 262.5946 0001368  79.5370 280.5776 15.08831727117333,6917.906,95.438,540.717,538.824,0.0
49460.0,STARLINK-3140,PAYLOAD,2023-12-20 00:06:11,15.08848815,0.0001256,53.2144,258.434,77.5342,282.5791,0.00034129,5.149e-05,0.0,0 STARLINK-3140,1 49460U 21104BE  23354.00429426  .00005149  00000-0  34129-3 0  9996,2 49460  53.2144 258.4340 0001256  77.5342 282.5791 15.08848815117474,6917.853,95.437,540.587,538.85,0.0
49460.0,STARLINK-3140,PAYLOAD,2023-12-20 20:46:11,15.08849121,0.0001236,53.2145,254.5669,88.1911,271.9223,0.00037018,5.61e-05,0.0,0 STARLINK-3140,1 49460U 21104BE  23354.86541499  .00005610  00000-0  37018-3 0  9998,2 49460  53.2145 254.5669 0001236  88.1911 271.9223 15.08849121116511,6917.853,95.437,540.573,538.862,0.0
49460.0,STARLINK-3140,PAYLOAD,2023-12-20 23:56:58,15.08849125,0.0001738,53.2143,253.9752,55.3472,304.7684,0.00037624,5.706e-05,0.0,0 STARLINK-3140,1 49460U 21104BE  23354.99789762  .00005706  00000-0  37624-3 0  9998,2 49460  53.2143 253.9752 0001738  55.3472 304.7684 15.08849125117623,6917.852,95.437,540.92,538.515,0.0
49460.0,STARLINK-3140,PAYLOAD,2023-12-21 22:12:21,15.08845714,0.0001351,53.2154,249.8064,93.954,266.1607,0.00016363,2.318e-05,0.0,0 STARLINK-3140,1 49460U 21104BE  23355.92525263  .00002318  00000-0  16363-3 0  9999,2 49460  53.2154 249.8064 0001351  93.9540 266.1607 15.08845714116670,6917.863,95.437,540.663,538.793,0.0
49460.0,STARLINK-3140,PAYLOAD,2023-12-21 23:47:45,15.08845367,0.0001359,53.2154,249.5092,88.5068,271.608,0.00018148,2.602e-05,0.0,0 STARLINK-3140,1 49460U 21104BE  23355.99149306  .00002602  00000-0  18148-3 0  9995,2 49460  53.2154 249.5092 0001359  88.5068 271.6080 15.08845367117773,6917.864,95.437,540.669,538.789,0.0
49460.0,STARLINK-3140,PAYLOAD,2023-12-22 20:27:46,15.08842574,0.0001405,53.2155,245.6439,88.056,272.0593,8.7655e-05,1.107e-05,0.0,0 STARLINK-3140,1 49460U 21104BE  23356.85261605  .00001107  00000-0  87655-4 0  9997,2 49460  53.2155 245.6439 0001405  88.0560 272.0593 15.08842574117906,6917.873,95.437,540.709,538.766,0.0
49460.0,STARLINK-3140,PAYLOAD,2023-12-22 22:03:09,15.08845731,0.0001467,53.2156,245.3462,80.1337,279.982,2.1758e-05,5.8e-07,0.0,0 STARLINK-3140,1 49460U 21104BE  23356.91885471  .00000058  00000-0  21758-4 0  9993,2 49460  53.2156 245.3462 0001467  80.1337 279.9820 15.08845731116820,6917.863,95.437,540.743,538.713,0.0
49460.0,STARLINK-3140,PAYLOAD,2023-12-23 02:49:18,15.08848404,0.0001487,53.2157,244.4527,88.2225,271.8937,0.00017021,2.423e-05,0.0,0 STARLINK-3140,1 49460U 21104BE  23357.11757305  .00002423  00000-0  17021-3 0  9995,2 49460  53.2157 244.4527 0001487  88.2225 271.8937 15.08848404116853,6917.855,95.437,540.748,538.691,0.0
49460.0,STARLINK-3140,PAYLOAD,2023-12-23 18:43:10,15.08826048,0.0001532,53.2167,241.4764,101.738,258.3784,0.00034295,5.172e-05,0.0,0 STARLINK-3140,1 49460U 21104BE  23357.77998394  .00005172  00000-0  34295-3 0  9998,2 49460  53.2167 241.4764 0001532 101.7380 258.3784 15.08826048118041,6917.923,95.438,540.848,538.728,0.0
49460.0,STARLINK-3140,PAYLOAD,2023-12-23 21:53:56,15.08846238,0.0001624,53.2156,240.8809,123.9045,236.2101,5.4222e-05,5.75e-06,0.0,0 STARLINK-3140,1 49460U 21104BE  23357.91245478  .00000575  00000-0  54222-4 0  9997,2 49460  53.2156 240.8809 0001624 123.9045 236.2101 15.08846238116979,6917.861,95.437,540.85,538.603,0.0
49460.0,STARLINK-3140,PAYLOAD,2023-12-23 23:29:19,15.08846542,0.0001482,53.2158,240.5839,111.1044,249.0107,0.00012994,1.781e-05,0.0,0 STARLINK-3140,1 49460U 21104BE  23357.97869456  .00001781  00000-0  12994-3 0  9990,2 49460  53.2158 240.5839 0001482 111.1044 249.0107 15.08846542118070,6917.86,95.437,540.751,538.7,0.0
49460.0,STARLINK-3140,PAYLOAD,2023-12-24 20:09:20,15.08843124,0.0001457,53.2153,236.7211,99.1009,261.0148,6.3609e-05,7.25e-06,0.0,0 STARLINK-3140,1 49460U 21104BE  23358.83981665  .00000725  00000-0  63609-4 0  9990,2 49460  53.2153 236.7211 0001457  99.1009 261.0148 15.08843124118201,6917.871,95.437,540.744,538.728,0.0
49460.0,STARLINK-3140,PAYLOAD,2023-12-24 21:44:43,15.08842742,0.0001465,53.2152,236.4238,99.2688,260.847,8.8332e-05,1.118e-05,0.0,0 STARLINK-3140,1 49460U 21104BE  23358.90605653  .00001118  00000-0  88332-4 0  9995,2 49460  53.2152 236.4238 0001465  99.2688 260.8470 15.08842742117129,6917.872,95.437,540.75,538.724,0.0
49460.0,STARLINK-3140,PAYLOAD,2023-12-25 20:00:07,15.08839789,0.0001423,53.2143,232.2626,106.1368,253.9781,3.9251e-05,3.37e-06,0.0,0 STARLINK-3140,1 49460U 21104BE  23359.83341927  .00000337  00000-0  39251-4 0  9997,2 49460  53.2143 232.2626 0001423 106.1368 253.9781 15.08839789118352,6917.881,95.438,540.73,538.762,0.0
49460.0,STARLINK-3140,PAYLOAD,2023-12-25 21:35:30,15.08839735,0.0001423,53.2142,231.9653,105.5988,254.5161,3.556e-05,2.78e-06,0.0,0 STARLINK-3140,1 49460U 21104BE  23359.89965917  .00000278  00000-0  35560-4 0  9997,2 49460  53.2142 231.9653 0001423 105.5988 254.5161 15.08839735117278,6917.881,95.438,540.731,538.762,0.0
49460.0,STARLINK-3140,PAYLOAD,2023-12-26 00:46:16,15.08842851,0.0001496,53.2145,231.369,110.2938,249.8215,7.8394e-05,9.6e-06,0.0,0 STARLINK-3140,1 49460U 21104BE  23360.03213714  .00000960  00000-0  78394-4 0  9996,2 49460  53.2145 231.3690 0001496 110.2938 249.8215 15.08842851117296,6917.872,95.437,540.772,538.702,0.0
49460.0,STARLINK-3140,PAYLOAD,2023-12-26 21:26:17,15.08844393,0.0001771,53.2158,227.4965,116.7464,243.3709,4.275e-05,3.92e-06,0.0,0 STARLINK-3140,1 49460U 21104BE  23360.89325878  .00000392  00000-0  42750-4 0  9991,2 49460  53.2158 227.4965 0001771 116.7464 243.3709 15.08844393117427,6917.867,95.437,540.957,538.507,0.0
49460.0,STARLINK-3140,PAYLOAD,2023-12-27 14:55:32,15.08840376,0.0001484,53.2162,224.2359,83.6229,276.4932,0.00010083,1.317e-05,0.0,0 STARLINK-3140,1 49460U 21104BE  23361.62190375  .00001317  00000-0  10083-3 0  9996,2 49460  53.2162 224.2359 0001484  83.6229 276.4932 15.08840376117530,6917.879,95.438,540.771,538.718,0.0
49460.0,STARLINK-3140,PAYLOAD,2023-12-27 19:41:41,15.08838876,0.0001419,53.2161,223.3409,104.4022,255.7127,8.7167e-05,1.1e-05,0.0,0 STARLINK-3140,1 49460U 21104BE  23361.82062381  .00001100  00000-0  87167-4 0  9991,2 49460  53.2161 223.3409 0001419 104.4022 255.7127 15.08838876118658,6917.884,95.438,540.73,538.767,0.0
49460.0,STARLINK-3140,PAYLOAD,2023-12-27 21:17:05,15.08839397,0.0001552,53.2161,223.0443,82.1459,277.9709,6.7253e-05,7.82e-06,0.0,0 STARLINK-3140,1 49460U 21104BE  23361.88686494  .00000782  00000-0  67253-4 0  9993,2 49460  53.2161 223.0443 0001552  82.1459 277.9709 15.08839397117578,6917.882,95.438,540.821,538.674,0.0
49460.0,STARLINK-3140,PAYLOAD,2023-12-28 00:27:51,15.08840868,0.0001444,53.2158,222.4484,91.4126,268.7032,9.1562e-05,1.17e-05,0.0,0 STARLINK-3140,1 49460U 21104BE  23362.01934261  .00001170  00000-0  91562-4 0  9999,2 49460  53.2158 222.4484 0001444  91.4126 268.7032 15.08840868117590,6917.878,95.437,540.742,538.744,0.0
